[{"OBJECT_NAME":"JAS-2 (FO-29)","OBJECT_ID":"1996-046B","EPOCH":"2026-04-05T13:23:42.746496","MEAN_MOTION":13.53270629,"ECCENTRICITY":0.0348876,"INCLINATION":98.5334,"RA_OF_ASC_NODE":314.338,"ARG_OF_PERICENTER":284.9629,"MEAN_ANOMALY":71.3141,"EPHEMERIS_TYPE":0,"CLASSIFICATION_TYPE":"U","NORAD_CAT_ID":24278,"ELEMENT_SET_NO":999,"REV_AT_EPOCH":46334,"BSTAR":4.9616e-5,"MEAN_MOTION_DOT":1.0e-7,"MEAN_MOTION_DDOT":0},{"OBJECT_NAME":"FORTE","OBJECT_ID":"1997-047A","EPOCH":"2026-04-05T19:16:40.327392","MEAN_MOTION":14.27914521,"ECCENTRICITY":0.0021227,"INCLINATION":69.9537,"RA_OF_ASC_NODE":177.5127,"ARG_OF_PERICENTER":9.4868,"MEAN_ANOMALY":350.665,"EPHEMERIS_TYPE":0,"CLASSIFICATION_TYPE":"U","NORAD_CAT_ID":24920,"ELEMENT_SET_NO":999,"REV_AT_EPOCH":48835,"BSTAR":0.00012761,"MEAN_MOTION_DOT":2.59e-6,"MEAN_MOTION_DDOT":0},{"OBJECT_NAME":"NOAA 15","OBJECT_ID":"1998-030A","EPOCH":"2026-04-05T19:57:45.252864","MEAN_MOTION":14.27124058,"ECCENTRICITY":0.0009967,"INCLINATION":98.513,"RA_OF_ASC_NODE":118.4009,"ARG_OF_PERICENTER":192.993,"MEAN_ANOMALY":167.0995,"EPHEMERIS_TYPE":0,"CLASSIFICATION_TYPE":"U","NORAD_CAT_ID":25338,"ELEMENT_SET_NO":999,"REV_AT_EPOCH":45097,"BSTAR":9.232e-5,"MEAN_MOTION_DOT":1.83e-6,"MEAN_MOTION_DDOT":0},{"OBJECT_NAME":"TECHSAT 1B (GO-32)","OBJECT_ID":"1998-043D","EPOCH":"2026-04-05T20:30:05.292288","MEAN_MOTION":14.24413894,"ECCENTRICITY":0.0002295,"INCLINATION":99.0053,"RA_OF_ASC_NODE":86.7978,"ARG_OF_PERICENTER":75.7964,"MEAN_ANOMALY":284.3469,"EPHEMERIS_TYPE":0,"CLASSIFICATION_TYPE":"U","NORAD_CAT_ID":25397,"ELEMENT_SET_NO":999,"REV_AT_EPOCH":44103,"BSTAR":6.5793e-5,"MEAN_MOTION_DOT":1.06e-6,"MEAN_MOTION_DDOT":0},{"OBJECT_NAME":"ISS (ZARYA)","OBJECT_ID":"1998-067A","EPOCH":"2026-04-05T19:28:26.281920","MEAN_MOTION":15.48791307,"ECCENTRICITY":0.0006355,"INCLINATION":51.6329,"RA_OF_ASC_NODE":298.2672,"ARG_OF_PERICENTER":276.3215,"MEAN_ANOMALY":83.7049,"EPHEMERIS_TYPE":0,"CLASSIFICATION_TYPE":"U","NORAD_CAT_ID":25544,"ELEMENT_SET_NO":999,"REV_AT_EPOCH":56053,"BSTAR":0.0001599,"MEAN_MOTION_DOT":8.309e-5,"MEAN_MOTION_DDOT":0},{"OBJECT_NAME":"ORSTED","OBJECT_ID":"1999-008B","EPOCH":"2026-04-05T17:49:16.123008","MEAN_MOTION":14.51727774,"ECCENTRICITY":0.0133475,"INCLINATION":96.4829,"RA_OF_ASC_NODE":19.7107,"ARG_OF_PERICENTER":59.4028,"MEAN_ANOMALY":302.0259,"EPHEMERIS_TYPE":0,"CLASSIFICATION_TYPE":"U","NORAD_CAT_ID":25635,"ELEMENT_SET_NO":999,"REV_AT_EPOCH":43145,"BSTAR":0.00027655,"MEAN_MOTION_DOT":1.216e-5,"MEAN_MOTION_DDOT":0},{"OBJECT_NAME":"LANDSAT 7","OBJECT_ID":"1999-020A","EPOCH":"2026-04-05T20:45:31.559040","MEAN_MOTION":14.63855458,"ECCENTRICITY":0.0001282,"INCLINATION":97.8604,"RA_OF_ASC_NODE":102.8142,"ARG_OF_PERICENTER":78.4667,"MEAN_ANOMALY":17.3802,"EPHEMERIS_TYPE":0,"CLASSIFICATION_TYPE":"U","NORAD_CAT_ID":25682,"ELEMENT_SET_NO":999,"REV_AT_EPOCH":43526,"BSTAR":0.00013288,"MEAN_MOTION_DOT":6.5e-6,"MEAN_MOTION_DDOT":0},{"OBJECT_NAME":"ORBCOMM FM36","OBJECT_ID":"1999-065E","EPOCH":"2026-04-05T10:14:28.145760","MEAN_MOTION":14.39058381,"ECCENTRICITY":0.00042375,"INCLINATION":45.038,"RA_OF_ASC_NODE":144.9646,"ARG_OF_PERICENTER":298.0165,"MEAN_ANOMALY":62.0255,"EPHEMERIS_TYPE":0,"CLASSIFICATION_TYPE":"U","NORAD_CAT_ID":25984,"ELEMENT_SET_NO":999,"REV_AT_EPOCH":37650,"BSTAR":0.00053236091,"MEAN_MOTION_DOT":1.518e-5,"MEAN_MOTION_DDOT":0},{"OBJECT_NAME":"DMSP 5D-3 F15 (USA 147)","OBJECT_ID":"1999-067A","EPOCH":"2026-04-05T21:32:51.108000","MEAN_MOTION":14.1753656,"ECCENTRICITY":0.0009655,"INCLINATION":99.0046,"RA_OF_ASC_NODE":133.5241,"ARG_OF_PERICENTER":202.5993,"MEAN_ANOMALY":332.0045,"EPHEMERIS_TYPE":0,"CLASSIFICATION_TYPE":"U","NORAD_CAT_ID":25991,"ELEMENT_SET_NO":999,"REV_AT_EPOCH":36040,"BSTAR":0.00012661,"MEAN_MOTION_DOT":2.11e-6,"MEAN_MOTION_DDOT":0},{"OBJECT_NAME":"OPAL (OO-38)","OBJECT_ID":"2000-004C","EPOCH":"2026-04-05T17:49:55.545600","MEAN_MOTION":14.37938904,"ECCENTRICITY":0.0035146,"INCLINATION":100.1891,"RA_OF_ASC_NODE":19.2198,"ARG_OF_PERICENTER":239.3947,"MEAN_ANOMALY":120.3766,"EPHEMERIS_TYPE":0,"CLASSIFICATION_TYPE":"U","NORAD_CAT_ID":26063,"ELEMENT_SET_NO":999,"REV_AT_EPOCH":37287,"BSTAR":9.9741e-5,"MEAN_MOTION_DOT":2.44e-6,"MEAN_MOTION_DDOT":0},{"OBJECT_NAME":"IMAGE","OBJECT_ID":"2000-017A","EPOCH":"2026-04-03T13:39:33.549120","MEAN_MOTION":1.68665511,"ECCENTRICITY":0.74885227,"INCLINATION":94.169,"RA_OF_ASC_NODE":314.3777,"ARG_OF_PERICENTER":296.3083,"MEAN_ANOMALY":7.4714,"EPHEMERIS_TYPE":0,"CLASSIFICATION_TYPE":"U","NORAD_CAT_ID":26113,"ELEMENT_SET_NO":999,"REV_AT_EPOCH":16024,"BSTAR":0.002376075,"MEAN_MOTION_DOT":6.9e-7,"MEAN_MOTION_DDOT":0},{"OBJECT_NAME":"CLUSTER II-FM7 (SAMBA)","OBJECT_ID":"2000-041A","EPOCH":"2026-03-31T00:54:20.014560","MEAN_MOTION":0.44796982,"ECCENTRICITY":0.89530667,"INCLINATION":149.3581,"RA_OF_ASC_NODE":38.1493,"ARG_OF_PERICENTER":254.4502,"MEAN_ANOMALY":0.4223,"EPHEMERIS_TYPE":0,"CLASSIFICATION_TYPE":"U","NORAD_CAT_ID":26410,"ELEMENT_SET_NO":999,"REV_AT_EPOCH":1996,"BSTAR":0,"MEAN_MOTION_DOT":2.444e-5,"MEAN_MOTION_DDOT":0},{"OBJECT_NAME":"CLUSTER II-FM8 (TANGO)","OBJECT_ID":"2000-045B","EPOCH":"2026-04-04T02:40:07.903776","MEAN_MOTION":0.44400104,"ECCENTRICITY":0.89621495,"INCLINATION":149.6837,"RA_OF_ASC_NODE":39.5667,"ARG_OF_PERICENTER":255.7736,"MEAN_ANOMALY":0.6086,"EPHEMERIS_TYPE":0,"CLASSIFICATION_TYPE":"U","NORAD_CAT_ID":26464,"ELEMENT_SET_NO":999,"REV_AT_EPOCH":1997,"BSTAR":0,"MEAN_MOTION_DOT":3.194e-5,"MEAN_MOTION_DDOT":0},{"OBJECT_NAME":"MEGSAT-1","OBJECT_ID":"2000-057B","EPOCH":"2026-04-05T20:40:48.421920","MEAN_MOTION":15.05090444,"ECCENTRICITY":0.0039232,"INCLINATION":64.5504,"RA_OF_ASC_NODE":300.8033,"ARG_OF_PERICENTER":291.5628,"MEAN_ANOMALY":68.131,"EPHEMERIS_TYPE":0,"CLASSIFICATION_TYPE":"U","NORAD_CAT_ID":26546,"ELEMENT_SET_NO":999,"REV_AT_EPOCH":38677,"BSTAR":0.0002628,"MEAN_MOTION_DOT":3.635e-5,"MEAN_MOTION_DDOT":0},{"OBJECT_NAME":"PHASE 3D (AO-40)","OBJECT_ID":"2000-072B","EPOCH":"2026-03-29T22:55:49.063872","MEAN_MOTION":1.25588345,"ECCENTRICITY":0.79389589,"INCLINATION":9.5411,"RA_OF_ASC_NODE":3.2104,"ARG_OF_PERICENTER":153.6172,"MEAN_ANOMALY":292.5885,"EPHEMERIS_TYPE":0,"CLASSIFICATION_TYPE":"U","NORAD_CAT_ID":26609,"ELEMENT_SET_NO":999,"REV_AT_EPOCH":11651,"BSTAR":0,"MEAN_MOTION_DOT":-3.17e-6,"MEAN_MOTION_DDOT":0},{"OBJECT_NAME":"ODIN","OBJECT_ID":"2001-007A","EPOCH":"2026-04-05T14:30:01.482912","MEAN_MOTION":15.61468513,"ECCENTRICITY":0.0004379,"INCLINATION":97.4006,"RA_OF_ASC_NODE":132.7992,"ARG_OF_PERICENTER":83.9401,"MEAN_ANOMALY":276.2355,"EPHEMERIS_TYPE":0,"CLASSIFICATION_TYPE":"U","NORAD_CAT_ID":26702,"ELEMENT_SET_NO":999,"REV_AT_EPOCH":37803,"BSTAR":0.00064048,"MEAN_MOTION_DOT":0.00054902,"MEAN_MOTION_DDOT":0},{"OBJECT_NAME":"OMNI-M1","OBJECT_ID":"2001-026A","EPOCH":"2026-04-02T07:10:16.480704","MEAN_MOTION":3.92401908,"ECCENTRICITY":0.00169402,"INCLINATION":44.8633,"RA_OF_ASC_NODE":262.75,"ARG_OF_PERICENTER":37.5963,"MEAN_ANOMALY":322.525,"EPHEMERIS_TYPE":0,"CLASSIFICATION_TYPE":"U","NORAD_CAT_ID":26857,"ELEMENT_SET_NO":999,"REV_AT_EPOCH":20259,"BSTAR":0,"MEAN_MOTION_DOT":-2.8e-7,"MEAN_MOTION_DDOT":0}]
